INTELSAT 15 (IS-15)     
1 36106U 09067A   25333.80894265 -.00000164  00000+0  00000+0 0  9996
2 36106   0.0398  91.1084 0002291 152.3674 201.8677  1.00271503 39230
DIRECTV 12              
1 36131U 09075A   25333.55766061 -.00000083  00000+0  00000+0 0  9997
2 36131   0.0259  95.7283 0000132 101.0567 329.9756  1.00272270 44552
INTELSAT 16 (IS-16)     
1 36397U 10006A   25333.77696247 -.00000224  00000+0  00000+0 0  9996
2 36397   0.0097 326.8104 0002159 282.2199  23.4073  1.00271689 57656
XM-5                    
1 37185U 10053A   25333.69788818 -.00000002  00000+0  00000+0 0  9995
2 37185   0.0633 272.1686 0001634 240.1849  52.5510  1.00269587 55480
INTELSAT 17 (IS-17)     
1 37238U 10065B   25333.80512928  .00000020  00000+0  00000+0 0  9996
2 37238   0.0113 289.7786 0002630 331.8885 163.1286  1.00271366 51249
INTELSAT 28 (IS-28)     
1 37392U 11016A   25333.78580250 -.00000203  00000+0  00000+0 0  9998
2 37392   1.2880  85.2150 0003969 169.4673  65.4387  1.00270696 51289
INTELSAT 18 (IS-18)     
1 37834U 11056A   25333.75638855  .00000074  00000+0  00000+0 0  9990
2 37834   0.0150 304.5094 0001891 303.4817 273.2160  1.00272240 51817
INTELSAT 22 (IS-22)     
1 38098U 12011A   25333.80634264 -.00000038  00000+0  00000+0 0  9992
2 38098   0.0147 319.5448 0001726 294.4234 177.3704  1.00271678  5185
