{
  "type": "FeatureCollection",
  "features": [
    {
      "type": "Feature",
      "properties": {
        "OBJECT_NAME": "INTELSAT 15 (IS-15)",
        "OBJECT_ID": "2009-067A",
        "EPOCH": "2025-11-29T19:24:52.644960",
        "MEAN_MOTION": 1.00271503,
        "ECCENTRICITY": 0.0002291,
        "INCLINATION": 0.0398,
        "RA_OF_ASC_NODE": 91.1084,
        "ARG_OF_PERICENTER": 152.3674,
        "MEAN_ANOMALY": 201.8677,
        "EPHEMERIS_TYPE": 0,
        "CLASSIFICATION_TYPE": "U",
        "NORAD_CAT_ID": 36106,
        "ELEMENT_SET_NO": 999,
        "REV_AT_EPOCH": 3923,
        "BSTAR": 0,
        "MEAN_MOTION_DOT": -1.64e-06,
        "MEAN_MOTION_DDOT": 0,
        "norad_id": 36106,
        "name": "INTELSAT 15 (IS-15)",
        "group": "intelsat",
        "longitude_deg": NaN,
        "latitude_deg": NaN,
        "alt_km": NaN,
        "orbit_class": "HEO",
        "timestamp": "2025-11-30T04:58:49.600497+00:00"
      },
      "geometry": {
        "type": "Point",
        "coordinates": [
          NaN,
          NaN
        ]
      }
    },
    {
      "type": "Feature",
      "properties": {
        "OBJECT_NAME": "DIRECTV 12",
        "OBJECT_ID": "2009-075A",
        "EPOCH": "2025-11-29T13:23:01.876704",
        "MEAN_MOTION": 1.0027227,
        "ECCENTRICITY": 1.32e-05,
        "INCLINATION": 0.0259,
        "RA_OF_ASC_NODE": 95.7283,
        "ARG_OF_PERICENTER": 101.0567,
        "MEAN_ANOMALY": 329.9756,
        "EPHEMERIS_TYPE": 0,
        "CLASSIFICATION_TYPE": "U",
        "NORAD_CAT_ID": 36131,
        "ELEMENT_SET_NO": 999,
        "REV_AT_EPOCH": 4455,
        "BSTAR": 0,
        "MEAN_MOTION_DOT": -8.3e-07,
        "MEAN_MOTION_DDOT": 0,
        "norad_id": 36131,
        "name": "DIRECTV 12",
        "group": "intelsat",
        "longitude_deg": NaN,
        "latitude_deg": NaN,
        "alt_km": NaN,
        "orbit_class": "HEO",
        "timestamp": "2025-11-30T04:58:49.600541+00:00"
      },
      "geometry": {
        "type": "Point",
        "coordinates": [
          NaN,
          NaN
        ]
      }
    },
    {
      "type": "Feature",
      "properties": {
        "OBJECT_NAME": "INTELSAT 16 (IS-16)",
        "OBJECT_ID": "2010-006A",
        "EPOCH": "2025-11-29T18:38:49.557408",
        "MEAN_MOTION": 1.00271689,
        "ECCENTRICITY": 0.0002159,
        "INCLINATION": 0.0097,
        "RA_OF_ASC_NODE": 326.8104,
        "ARG_OF_PERICENTER": 282.2199,
        "MEAN_ANOMALY": 23.4073,
        "EPHEMERIS_TYPE": 0,
        "CLASSIFICATION_TYPE": "U",
        "NORAD_CAT_ID": 36397,
        "ELEMENT_SET_NO": 999,
        "REV_AT_EPOCH": 5765,
        "BSTAR": 0,
        "MEAN_MOTION_DOT": -2.24e-06,
        "MEAN_MOTION_DDOT": 0,
        "norad_id": 36397,
        "name": "INTELSAT 16 (IS-16)",
        "group": "intelsat",
        "longitude_deg": NaN,
        "latitude_deg": NaN,
        "alt_km": NaN,
        "orbit_class": "HEO",
        "timestamp": "2025-11-30T04:58:49.600561+00:00"
      },
      "geometry": {
        "type": "Point",
        "coordinates": [
          NaN,
          NaN
        ]
      }
    },
    {
      "type": "Feature",
      "properties": {
        "OBJECT_NAME": "XM-5",
        "OBJECT_ID": "2010-053A",
        "EPOCH": "2025-11-29T16:44:57.538752",
        "MEAN_MOTION": 1.00269587,
        "ECCENTRICITY": 0.0001634,
        "INCLINATION": 0.0633,
        "RA_OF_ASC_NODE": 272.1686,
        "ARG_OF_PERICENTER": 240.1849,
        "MEAN_ANOMALY": 52.551,
        "EPHEMERIS_TYPE": 0,
        "CLASSIFICATION_TYPE": "U",
        "NORAD_CAT_ID": 37185,
        "ELEMENT_SET_NO": 999,
        "REV_AT_EPOCH": 5548,
        "BSTAR": 0,
        "MEAN_MOTION_DOT": -2e-08,
        "MEAN_MOTION_DDOT": 0,
        "norad_id": 37185,
        "name": "XM-5",
        "group": "intelsat",
        "longitude_deg": NaN,
        "latitude_deg": NaN,
        "alt_km": NaN,
        "orbit_class": "HEO",
        "timestamp": "2025-11-30T04:58:49.600824+00:00"
      },
      "geometry": {
        "type": "Point",
        "coordinates": [
          NaN,
          NaN
        ]
      }
    },
    {
      "type": "Feature",
      "properties": {
        "OBJECT_NAME": "INTELSAT 17 (IS-17)",
        "OBJECT_ID": "2010-065B",
        "EPOCH": "2025-11-29T19:19:23.169792",
        "MEAN_MOTION": 1.00271366,
        "ECCENTRICITY": 0.000263,
        "INCLINATION": 0.0113,
        "RA_OF_ASC_NODE": 289.7786,
        "ARG_OF_PERICENTER": 331.8885,
        "MEAN_ANOMALY": 163.1286,
        "EPHEMERIS_TYPE": 0,
        "CLASSIFICATION_TYPE": "U",
        "NORAD_CAT_ID": 37238,
        "ELEMENT_SET_NO": 999,
        "REV_AT_EPOCH": 5124,
        "BSTAR": 0,
        "MEAN_MOTION_DOT": 2e-07,
        "MEAN_MOTION_DDOT": 0,
        "norad_id": 37238,
        "name": "INTELSAT 17 (IS-17)",
        "group": "intelsat",
        "longitude_deg": NaN,
        "latitude_deg": NaN,
        "alt_km": NaN,
        "orbit_class": "HEO",
        "timestamp": "2025-11-30T04:58:49.600914+00:00"
      },
      "geometry": {
        "type": "Point",
        "coordinates": [
          NaN,
          NaN
        ]
      }
    },
    {
      "type": "Feature",
      "properties": {
        "OBJECT_NAME": "INTELSAT 28 (IS-28)",
        "OBJECT_ID": "2011-016A",
        "EPOCH": "2025-11-29T18:51:33.336000",
        "MEAN_MOTION": 1.00270696,
        "ECCENTRICITY": 0.0003969,
        "INCLINATION": 1.288,
        "RA_OF_ASC_NODE": 85.215,
        "ARG_OF_PERICENTER": 169.4673,
        "MEAN_ANOMALY": 65.4387,
        "EPHEMERIS_TYPE": 0,
        "CLASSIFICATION_TYPE": "U",
        "NORAD_CAT_ID": 37392,
        "ELEMENT_SET_NO": 999,
        "REV_AT_EPOCH": 5128,
        "BSTAR": 0,
        "MEAN_MOTION_DOT": -2.03e-06,
        "MEAN_MOTION_DDOT": 0,
        "norad_id": 37392,
        "name": "INTELSAT 28 (IS-28)",
        "group": "intelsat",
        "longitude_deg": NaN,
        "latitude_deg": NaN,
        "alt_km": NaN,
        "orbit_class": "HEO",
        "timestamp": "2025-11-30T04:58:49.600974+00:00"
      },
      "geometry": {
        "type": "Point",
        "coordinates": [
          NaN,
          NaN
        ]
      }
    },
    {
      "type": "Feature",
      "properties": {
        "OBJECT_NAME": "INTELSAT 18 (IS-18)",
        "OBJECT_ID": "2011-056A",
        "EPOCH": "2025-11-29T18:09:11.970720",
        "MEAN_MOTION": 1.0027224,
        "ECCENTRICITY": 0.0001891,
        "INCLINATION": 0.015,
        "RA_OF_ASC_NODE": 304.5094,
        "ARG_OF_PERICENTER": 303.4817,
        "MEAN_ANOMALY": 273.216,
        "EPHEMERIS_TYPE": 0,
        "CLASSIFICATION_TYPE": "U",
        "NORAD_CAT_ID": 37834,
        "ELEMENT_SET_NO": 999,
        "REV_AT_EPOCH": 5181,
        "BSTAR": 0,
        "MEAN_MOTION_DOT": 7.4e-07,
        "MEAN_MOTION_DDOT": 0,
        "norad_id": 37834,
        "name": "INTELSAT 18 (IS-18)",
        "group": "intelsat",
        "longitude_deg": NaN,
        "latitude_deg": NaN,
        "alt_km": NaN,
        "orbit_class": "HEO",
        "timestamp": "2025-11-30T04:58:49.601204+00:00"
      },
      "geometry": {
        "type": "Point",
        "coordinates": [
          NaN,
          NaN
        ]
      }
    },
    {
      "type": "Feature",
      "properties": {
        "OBJECT_NAME": "INTELSAT 22 (IS-22)",
        "OBJECT_ID": "2012-011A",
        "EPOCH": "2025-11-29T19:21:08.004096",
        "MEAN_MOTION": 1.00271678,
        "ECCENTRICITY": 0.0001726,
        "INCLINATION": 0.0147,
        "RA_OF_ASC_NODE": 319.5448,
        "ARG_OF_PERICENTER": 294.4234,
        "MEAN_ANOMALY": 177.3704,
        "EPHEMERIS_TYPE": 0,
        "CLASSIFICATION_TYPE": "U",
        "NORAD_CAT_ID": 38098,
        "ELEMENT_SET_NO": 999,
        "REV_AT_EPOCH": 518,
        "BSTAR": 0,
        "MEAN_MOTION_DOT": -3.8e-07,
        "MEAN_MOTION_DDOT": 0,
        "norad_id": 38098,
        "name": "INTELSAT 22 (IS-22)",
        "group": "intelsat",
        "longitude_deg": NaN,
        "latitude_deg": NaN,
        "alt_km": NaN,
        "orbit_class": "HEO",
        "timestamp": "2025-11-30T04:58:49.601414+00:00"
      },
      "geometry": {
        "type": "Point",
        "coordinates": [
          NaN,
          NaN
        ]
      }
    }
  ]
}